ONEWEB-0350             
1 49214U 21083AE  25008.56092426 -.00000287  00000+0 -81968-3 0  9996
2 49214  87.8905  64.5502 0002198 101.0771 259.0606 13.13467705162068
ONEWEB-0351             
1 49215U 21083AF  25008.56765645  .00000002  00000+0 -25791-4 0  9994
2 49215  87.9241  18.8129 0001656 120.1811 239.9487 13.20772927167528
ONEWEB-0352             
1 49216U 21083AG  25008.54188902  .00000028  00000+0  42145-4 0  9997
2 49216  87.8910  64.5912 0001843 115.5948 244.5372 13.13470370162154
ONEWEB-0354             
1 49217U 21083AH  25008.51729885  .00000112  00000+0  24388-3 0  9998
2 49217  87.9246  18.8153 0002199  91.8778 268.2607 13.20773676167555
ONEWEB-0355             
1 49218U 21083AJ  25008.57202964 -.00000179  00000+0 -52532-3 0  9996
2 49218  87.8909  64.5841 0002004 105.0775 255.0576 13.13467931162036
ONEWEB-0357             
1 49219U 21083AK  25008.43838792  .00000117  00000+0  25561-3 0  9998
2 49219  87.9241  18.8426 0001825  96.4108 263.7233 13.20771879167545
ONEWEB-0332             
1 49279U 21090A   25008.53873876 -.00000088  00000+0 -27190-3 0  9994
2 49279  87.8988  34.0440 0001466  96.5228 263.6068 13.14504287158656
ONEWEB-0347             
1 49280U 21090B   25008.58042618  .00000070  00000+0  14004-3 0  9992
2 49280  87.9244  18.8183 0001404  86.5136 273.6158 13.20771789161797
